     3.04           N: GNSS NAV DATA    G: GPS              RINEX VERSION / TYPE
cnvtToRINEX 3.13.0  REGINA              05-Apr-20 01:42 UTC PGM / RUN BY / DATE 
----------------------------------------------------------- COMMENT             
GPSA   0.1118D-07  0.1490D-07 -0.5960D-07 -0.5960D-07       IONOSPHERIC CORR    
GPSB   0.8806D+05  0.1638D+05 -0.1966D+06 -0.1311D+06       IONOSPHERIC CORR    
GPUT  0.0000000000D+00 0.000000000D+00 147456 2100          TIME SYSTEM CORR    
    18                                                      LEAP SECONDS        
                                                            END OF HEADER       
G12 2020 04 05 00 00 00 0.132899731398D-03-0.432009983342D-11 0.000000000000D+00
     0.130000000000D+02-0.380312500000D+02 0.426874923911D-08 0.514941499483D+00
    -0.217929482460D-05 0.811452511698D-02 0.898167490959D-05 0.515371481895D+04
     0.000000000000D+00-0.163912773132D-06 0.192167226443D+01 0.111758708954D-07
     0.978679233576D+00 0.217812500000D+03 0.113122659478D+01-0.801854829044D-08
    -0.538951020902D-09 0.100000000000D+01 0.210000000000D+04 0.000000000000D+00
     0.200000000000D+01 0.000000000000D+00-0.125728547573D-07 0.130000000000D+02
    -0.715200000000D+04 0.400000000000D+01 0.000000000000D+00 0.000000000000D+00
G20 2020 04 05 00 00 00 0.527838710696D-03 0.000000000000D+00 0.000000000000D+00
     0.900000000000D+02-0.101500000000D+03 0.531950729312D-08 0.139334991263D+01
    -0.529550015926D-05 0.502331799362D-02 0.486336648464D-05 0.515363971138D+04
     0.000000000000D+00 0.596046447754D-07-0.142159170853D+01 0.745058059692D-08
     0.933157022147D+00 0.267468750000D+03 0.263564847041D+01-0.864250285208D-08
    -0.464305054455D-09 0.100000000000D+01 0.210000000000D+04 0.000000000000D+00
     0.200000000000D+01 0.000000000000D+00-0.884756445885D-08 0.900000000000D+02
    -0.712200000000D+04 0.400000000000D+01 0.000000000000D+00 0.000000000000D+00
G30 2020 04 05 00 00 00-0.191169790924D-03-0.852651282912D-11 0.000000000000D+00
     0.350000000000D+02 0.431562500000D+02 0.540915388440D-08 0.117403076293D+01
     0.231526792049D-05 0.442675000522D-02 0.477768480778D-05 0.515365827370D+04
     0.000000000000D+00-0.707805156708D-07 0.839238535802D+00 0.838190317154D-07
     0.938816749372D+00 0.275562500000D+03-0.291081329917D+01-0.859035782288D-08
     0.225009372544D-09 0.100000000000D+01 0.210000000000D+04 0.000000000000D+00
     0.200000000000D+01 0.000000000000D+00 0.372529029846D-08 0.350000000000D+02
    -0.631200000000D+04 0.400000000000D+01 0.000000000000D+00 0.000000000000D+00
G 7 2020 04 05 00 00 00-0.251388177276D-03-0.852651282912D-11 0.000000000000D+00
     0.750000000000D+02 0.426250000000D+02 0.512735643212D-08 0.118777328224D+01
     0.229850411415D-05 0.135501148179D-01 0.541470944881D-05 0.515367122841D+04
     0.000000000000D+00-0.173225998878D-06 0.815777000272D+00 0.894069671631D-07
     0.953498447460D+00 0.273125000000D+03-0.240821087732D+01-0.856535678149D-08
     0.130005415247D-09 0.100000000000D+01 0.210000000000D+04 0.000000000000D+00
     0.200000000000D+01 0.000000000000D+00-0.111758708954D-07 0.750000000000D+02
    -0.601200000000D+04 0.400000000000D+01 0.000000000000D+00 0.000000000000D+00
G16 2020 04 05 00 00 00-0.142909120768D-03-0.432009983342D-11 0.000000000000D+00
     0.750000000000D+02-0.237500000000D+02 0.417124517768D-08-0.131743426587D+01
    -0.127218663692D-05 0.115399308270D-01 0.860169529915D-05 0.515373728561D+04
     0.000000000000D+00 0.240281224251D-06 0.194054557976D+01-0.409781932831D-07
     0.978937595149D+00 0.215968750000D+03 0.622017299872D+00-0.782818321811D-08
    -0.369658254893D-09 0.100000000000D+01 0.210000000000D+04 0.000000000000D+00
     0.200000000000D+01 0.000000000000D+00-0.107102096081D-07 0.750000000000D+02
    -0.542400000000D+04 0.400000000000D+01 0.000000000000D+00 0.000000000000D+00
G10 2020 04 05 00 00 00-0.299963634461D-03-0.122781784739D-10 0.000000000000D+00
     0.550000000000D+02-0.105062500000D+03 0.451518807571D-08-0.173623216744D+00
    -0.565499067307D-05 0.550733052660D-02 0.664591789246D-05 0.515366859818D+04
     0.000000000000D+00 0.186264514923D-08-0.129245293985D+01 0.651925802231D-07
     0.964940626107D+00 0.252000000000D+03-0.263632601946D+01-0.828320217148D-08
    -0.480734310228D-09 0.100000000000D+01 0.210000000000D+04 0.000000000000D+00
     0.200000000000D+01 0.000000000000D+00 0.186264514923D-08 0.550000000000D+02
    -0.224400000000D+04 0.400000000000D+01 0.000000000000D+00 0.000000000000D+00
G24 2020 04 04 23 59 44-0.112704001367D-04-0.568434188608D-12 0.000000000000D+00
     0.210000000000D+02 0.538125000000D+02 0.539772483691D-08 0.213860270443D+01
     0.272504985332D-05 0.959643768147D-02 0.526010990143D-05 0.515365155411D+04
     0.604784000000D+06-0.227242708206D-06 0.864911993228D+00-0.819563865662D-07
     0.936815522790D+00 0.264437500000D+03 0.666125532219D+00-0.857785730219D-08
     0.394302138552D-09 0.100000000000D+01 0.209900000000D+04 0.000000000000D+00
     0.200000000000D+01 0.000000000000D+00 0.279396772385D-08 0.210000000000D+02
     0.602682000000D+06 0.400000000000D+01 0.000000000000D+00 0.000000000000D+00
G27 2020 04 05 00 00 00-0.257974490523D-03-0.105728759081D-10 0.000000000000D+00
     0.680000000000D+02 0.720312500000D+02 0.400909556635D-08-0.220613114194D+01
     0.352226197720D-05 0.814870465547D-02 0.108573585749D-04 0.515366433716D+04
     0.000000000000D+00 0.651925802231D-07 0.289754651497D+01-0.100582838058D-06
     0.978559742427D+00 0.180250000000D+03 0.531038408430D+00-0.770496379981D-08
     0.231795369493D-09 0.100000000000D+01 0.210000000000D+04 0.000000000000D+00
     0.200000000000D+01 0.000000000000D+00 0.139698386192D-08 0.680000000000D+02
    -0.894000000000D+03 0.400000000000D+01 0.000000000000D+00 0.000000000000D+00
